{
  "norad_id": 61927,
  "name": "STARLINK-32622",
  "history": [
    {
      "epoch": "2026-04-14T21:28:21Z",
      "apogee_km": 483.62551830284247,
      "perigee_km": 482.4426524077271,
      "latitude_deg": 1.2747988907575448e-06,
      "longitude_deg": -88.26455518931468,
      "height_km": 482.7800533299396,
      "semi_major_axis_km": 6861.171085355285,
      "eccentricity": 8.62e-05,
      "inclination_deg": 43.0023,
      "raan_deg": 76.8875,
      "arg_perigee_deg": 272.9587,
      "mean_anomaly_deg": 87.1166,
      "mean_motion_rev_day": 15.27585013
    },
    {
      "epoch": "2026-04-15T05:19:07.865184Z",
      "apogee_km": 483.63072777172874,
      "perigee_km": 482.4394910700912,
      "latitude_deg": -1.4019836874555158e-05,
      "longitude_deg": 151.87141930030123,
      "height_km": 482.7924618013995,
      "semi_major_axis_km": 6861.17210942091,
      "eccentricity": 8.681e-05,
      "inclination_deg": 43.0023,
      "raan_deg": 75.041,
      "arg_perigee_deg": 271.8424,
      "mean_anomaly_deg": 88.2328,
      "mean_motion_rev_day": 15.27584671
    },
    {
      "epoch": "2026-04-16T06:25:37.992576Z",
      "apogee_km": 483.8672314526284,
      "perigee_km": 482.179386016679,
      "latitude_deg": -1.0233084928665451e-05,
      "longitude_deg": 128.30503054128704,
      "height_km": 482.54731264593823,
      "semi_major_axis_km": 6861.160308734653,
      "eccentricity": 0.000123,
      "inclination_deg": 43.0041,
      "raan_deg": 69.1313,
      "arg_perigee_deg": 287.445,
      "mean_anomaly_deg": 72.6267,
      "mean_motion_rev_day": 15.27588612
    },
    {
      "epoch": "2026-04-17T21:39:32.994144Z",
      "apogee_km": 483.2503832209168,
      "perigee_km": 482.76777020587997,
      "latitude_deg": 1.2415760738399745e-05,
      "longitude_deg": -111.01871480225505,
      "height_km": 483.0123030722935,
      "semi_major_axis_km": 6861.146076713398,
      "eccentricity": 3.517e-05,
      "inclination_deg": 42.9994,
      "raan_deg": 59.8979,
      "arg_perigee_deg": 160.9118,
      "mean_anomaly_deg": 199.1747,
      "mean_motion_rev_day": 15.27593365
    },
    {
      "epoch": "2026-04-18T21:11:53.537856Z",
      "apogee_km": 483.0928661403914,
      "perigee_km": 482.86644929068643,
      "latitude_deg": -2.8118272456260848e-05,
      "longitude_deg": -110.60597074273542,
      "height_km": 482.69291707906325,
      "semi_major_axis_km": 6861.116657715538,
      "eccentricity": 1.65e-05,
      "inclination_deg": 43.0003,
      "raan_deg": 54.363,
      "arg_perigee_deg": 56.7628,
      "mean_anomaly_deg": 303.3239,
      "mean_motion_rev_day": 15.2760319
    },
    {
      "epoch": "2026-04-19T12:53:27.200832Z",
      "apogee_km": 483.3825310915072,
      "perigee_km": 482.66348152284627,
      "latitude_deg": -4.4985433135299e-06,
      "longitude_deg": 9.66491573223028,
      "height_km": 482.72026787970134,
      "semi_major_axis_km": 6861.160006307176,
      "eccentricity": 5.24e-05,
      "inclination_deg": 43.0037,
      "raan_deg": 50.6686,
      "arg_perigee_deg": 282.7054,
      "mean_anomaly_deg": 77.3739,
      "mean_motion_rev_day": 15.27588713
    },
    {
      "epoch": "2026-04-20T12:25:48.796896Z",
      "apogee_km": 483.9141137138131,
      "perigee_km": 482.23078458755845,
      "latitude_deg": -1.624842456869615e-05,
      "longitude_deg": 10.070091851786398,
      "height_km": 482.88812156459124,
      "semi_major_axis_km": 6861.209449150685,
      "eccentricity": 0.00012267,
      "inclination_deg": 43.0036,
      "raan_deg": 45.1305,
      "arg_perigee_deg": 267.3633,
      "mean_anomaly_deg": 92.7078,
      "mean_motion_rev_day": 15.27572201
    },
    {
      "epoch": "2026-04-21T19:49:06.261888Z",
      "apogee_km": 485.6362921650343,
      "perigee_km": 482.8350716362829,
      "latitude_deg": 3.481258929986575e-05,
      "longitude_deg": -109.42529466800312,
      "height_km": 485.32951971585715,
      "semi_major_axis_km": 6862.372681900659,
      "eccentricity": 0.0002041,
      "inclination_deg": 43.0013,
      "raan_deg": 37.7469,
      "arg_perigee_deg": 199.8053,
      "mean_anomaly_deg": 160.272,
      "mean_motion_rev_day": 15.27183812
    },
    {
      "epoch": "2026-04-22T16:00:00.999072Z",
      "apogee_km": 484.3356458443259,
      "perigee_km": 482.10570459987866,
      "latitude_deg": -31.41592789931639,
      "longitude_deg": -98.37374845876673,
      "height_km": 491.06252204054056,
      "semi_major_axis_km": 6861.3576752221015,
      "eccentricity": 0.0001625,
      "inclination_deg": 43.0027,
      "raan_deg": 32.9958,
      "arg_perigee_deg": 261.2988,
      "mean_anomaly_deg": 49.1867,
      "mean_motion_rev_day": 15.27522701
    },
    {
      "epoch": "2026-04-23T11:02:53.153952Z",
      "apogee_km": 483.5805596238588,
      "perigee_km": 482.5498698271622,
      "latitude_deg": 6.566073147784726e-06,
      "longitude_deg": 11.283881692536813,
      "height_km": 482.72401622422683,
      "semi_major_axis_km": 6861.20221472551,
      "eccentricity": 7.511e-05,
      "inclination_deg": 43.0071,
      "raan_deg": 28.5126,
      "arg_perigee_deg": 283.2507,
      "mean_anomaly_deg": 76.8261,
      "mean_motion_rev_day": 15.27574617
    },
    {
      "epoch": "2026-04-24T18:25:58.986048Z",
      "apogee_km": 484.3758476921412,
      "perigee_km": 481.6094402196977,
      "latitude_deg": 1.905881103277282e-05,
      "longitude_deg": -108.16554127157886,
      "height_km": 482.73484858335524,
      "semi_major_axis_km": 6861.129643955919,
      "eccentricity": 0.0002016,
      "inclination_deg": 43.0042,
      "raan_deg": 21.1264,
      "arg_perigee_deg": 271.4686,
      "mean_anomaly_deg": 88.5935,
      "mean_motion_rev_day": 15.27598853
    },
    {
      "epoch": "2026-04-25T10:07:32.307744Z",
      "apogee_km": 483.64780190285546,
      "perigee_km": 482.29890760710987,
      "latitude_deg": -1.7278522303490273e-05,
      "longitude_deg": 12.110807602551906,
      "height_km": 482.61456730455086,
      "semi_major_axis_km": 6861.110354754982,
      "eccentricity": 9.83e-05,
      "inclination_deg": 43.0017,
      "raan_deg": 17.4361,
      "arg_perigee_deg": 281.5745,
      "mean_anomaly_deg": 78.4996,
      "mean_motion_rev_day": 15.27605295
    },
    {
      "epoch": "2026-04-26T03:23:15.173376Z",
      "apogee_km": 483.9388727854939,
      "perigee_km": 481.9871642742228,
      "latitude_deg": -5.1921398941646584e-05,
      "longitude_deg": 108.41164257172058,
      "height_km": 482.7721175686807,
      "semi_major_axis_km": 6861.100018529858,
      "eccentricity": 0.00014223,
      "inclination_deg": 43.0025,
      "raan_deg": 13.3745,
      "arg_perigee_deg": 268.1148,
      "mean_anomaly_deg": 91.954,
      "mean_motion_rev_day": 15.27608747
    },
    {
      "epoch": "2026-04-27T09:12:13.927392Z",
      "apogee_km": 483.99375716023224,
      "perigee_km": 482.1494642856687,
      "latitude_deg": 5.480337258293739e-05,
      "longitude_deg": 12.924635993684406,
      "height_km": 482.60192610479055,
      "semi_major_axis_km": 6861.20861072295,
      "eccentricity": 0.0001344,
      "inclination_deg": 43.0034,
      "raan_deg": 6.3567,
      "arg_perigee_deg": 285.5177,
      "mean_anomaly_deg": 74.5527,
      "mean_motion_rev_day": 15.27572481
    },
    {
      "epoch": "2026-04-28T02:27:57.550752Z",
      "apogee_km": 484.03944872546344,
      "perigee_km": 482.0174632655817,
      "latitude_deg": 2.442028642405254e-06,
      "longitude_deg": 109.22268676026341,
      "height_km": 482.7626122416623,
      "semi_major_axis_km": 6861.165455995522,
      "eccentricity": 0.00014735,
      "inclination_deg": 43.0045,
      "raan_deg": 2.2955,
      "arg_perigee_deg": 272.444,
      "mean_anomaly_deg": 87.6243,
      "mean_motion_rev_day": 15.27586893
    },
    {
      "epoch": "2026-04-29T16:07:43.298688Z",
      "apogee_km": 483.29291872490285,
      "perigee_km": 482.7453984634467,
      "latitude_deg": -8.04634476474499e-06,
      "longitude_deg": -106.12359246421931,
      "height_km": 482.58505814674373,
      "semi_major_axis_km": 6861.1561585941745,
      "eccentricity": 3.99e-05,
      "inclination_deg": 42.9983,
      "raan_deg": 353.4366,
      "arg_perigee_deg": 319.9654,
      "mean_anomaly_deg": 40.1168,
      "mean_motion_rev_day": 15.27589998
    },
    {
      "epoch": "2026-04-30T15:40:03.714528Z",
      "apogee_km": 483.28287741039185,
      "perigee_km": 482.6764919178004,
      "latitude_deg": 3.638234127241684e-05,
      "longitude_deg": -105.7156238606402,
      "height_km": 482.55492939934175,
      "semi_major_axis_km": 6861.116684664095,
      "eccentricity": 4.419e-05,
      "inclination_deg": 42.9966,
      "raan_deg": 347.8963,
      "arg_perigee_deg": 311.3074,
      "mean_anomaly_deg": 48.774,
      "mean_motion_rev_day": 15.27603181
    },
    {
      "epoch": "2026-05-02T06:53:58.868160Z",
      "apogee_km": 484.53853428535695,
      "perigee_km": 481.65132788875417,
      "latitude_deg": -2.1289638243923928e-05,
      "longitude_deg": 14.961205220645859,
      "height_km": 482.1688694339965,
      "semi_major_axis_km": 6861.231931087055,
      "eccentricity": 0.0002104,
      "inclination_deg": 42.9958,
      "raan_deg": 338.6642,
      "arg_perigee_deg": 61.0398,
      "mean_anomaly_deg": 299.0664,
      "mean_motion_rev_day": 15.27564693
    },
    {
      "epoch": "2026-05-03T20:33:43.917120Z",
      "apogee_km": 483.50738524550434,
      "perigee_km": 482.49742552503176,
      "latitude_deg": 2.363164478579177e-06,
      "longitude_deg": 159.6142778107595,
      "height_km": 482.9046814813398,
      "semi_major_axis_km": 6861.139405385268,
      "eccentricity": 7.36e-05,
      "inclination_deg": 43.0002,
      "raan_deg": 329.8017,
      "arg_perigee_deg": 255.5309,
      "mean_anomaly_deg": 104.5461,
      "mean_motion_rev_day": 15.27595593
    }
  ]
}